start=new Date('2023-04-25T00:00:00.000Z').valueOf();
sats=[{"OBJECT_NAME":"STARLINK-6104","INCLINATION":"42.9996","MEAN_MOTION":"15.71640730","EPOCH":"2023-04-24T16:57:06.063552","MEAN_MOTION_DOT":"0.00126288","PERIOD":"91.624","RCS_SIZE":"LARGE","PERIAPSIS":"350.315","ARG_OF_PERICENTER":"352.4348","MEAN_ELEMENT_THEORY":"SGP4","RA_OF_ASC_NODE":"107.9192","SITE":"AFETR","TIME_SYSTEM":"UTC","CENTER_NAME":"EARTH","MEAN_ANOMALY":"7.6432","COUNTRY_CODE":"US","ECCENTRICITY":"0.00057850","TLE_LINE1":"1 56127U 23046AM  23114.70632018  .00126288  00000-0  93988-3 0  9991","SEMIMAJOR_AXIS":"6732.344","ELEMENT_SET_NO":"999","LAUNCH_DATE":"2023-03-29","CLASSIFICATION_TYPE":"U","DECAY_DATE":null,"FILE":"3893441","GP_ID":"230704887","OBJECT_TYPE":"PAYLOAD","BSTAR":"0.00093988000000","EPHEMERIS_TYPE":"0","NORAD_CAT_ID":"56127","MEAN_MOTION_DDOT":"0.0000000000000","REV_AT_EPOCH":"461","OBJECT_ID":"2023-046AM","TLE_LINE2":"2 56127  42.9996 107.9192 0005785 352.4348   7.6432 15.71640730  4612","APOAPSIS":"358.104","REF_FRAME":"TEME"},{"MEAN_ANOMALY":"91.0169","COUNTRY_CODE":"US","TLE_LINE1":"1 56128U 23046AN  23114.45281710 -.00159108  00000-0 -12471-2 0  9999","ECCENTRICITY":"0.00015760","SEMIMAJOR_AXIS":"6733.920","ELEMENT_SET_NO":"999","LAUNCH_DATE":"2023-03-29","CLASSIFICATION_TYPE":"U","DECAY_DATE":null,"FILE":"3893330","GP_ID":"230702786","EPHEMERIS_TYPE":"0","OBJECT_TYPE":"PAYLOAD","BSTAR":"-0.00124710000000","NORAD_CAT_ID":"56128","MEAN_MOTION_DDOT":"0.0000000000000","TLE_LINE2":"2 56128  42.9999 109.4570 0001576 269.0518  91.0169 15.71089149  4030","OBJECT_ID":"2023-046AN","REV_AT_EPOCH":"403","APOAPSIS":"356.846","REF_FRAME":"TEME","MEAN_MOTION":"15.71089149","OBJECT_NAME":"STARLINK-6122","INCLINATION":"42.9999","EPOCH":"2023-04-24T10:52:03.397440","MEAN_MOTION_DOT":"-0.00159108","PERIOD":"91.656","RCS_SIZE":"LARGE","PERIAPSIS":"354.724","MEAN_ELEMENT_THEORY":"SGP4","ARG_OF_PERICENTER":"269.0518","RA_OF_ASC_NODE":"109.4570","SITE":"AFETR","TIME_SYSTEM":"UTC","CENTER_NAME":"EARTH"},{"CLASSIFICATION_TYPE":"U","LAUNCH_DATE":"2023-03-29","SEMIMAJOR_AXIS":"6726.407","ELEMENT_SET_NO":"999","COUNTRY_CODE":"US","ECCENTRICITY":"0.00018690","TLE_LINE1":"1 56129U 23046AP  23114.67963046 -.00071505  00000-0 -49383-3 0  9990","MEAN_ANOMALY":"310.5298","REV_AT_EPOCH":"461","OBJECT_ID":"2023-046AP","TLE_LINE2":"2 56129  43.0022 107.7071 0001869  49.5733 310.5298 15.73722116  4618","REF_FRAME":"TEME","APOAPSIS":"349.529","MEAN_MOTION_DDOT":"0.0000000000000","GP_ID":"230704899","OBJECT_TYPE":"PAYLOAD","BSTAR":"-0.00049383000000","NORAD_CAT_ID":"56129","EPHEMERIS_TYPE":"0","FILE":"3893442","DECAY_DATE":null,"RCS_SIZE":"LARGE","PERIOD":"91.503","EPOCH":"2023-04-24T16:18:40.071744","MEAN_MOTION_DOT":"-0.00071505","INCLINATION":"43.0022","OBJECT_NAME":"STARLINK-6121","MEAN_MOTION":"15.73722116","TIME_SYSTEM":"UTC","CENTER_NAME":"EARTH","RA_OF_ASC_NODE":"107.7071","SITE":"AFETR","PERIAPSIS":"347.015","ARG_OF_PERICENTER":"49.5733","MEAN_ELEMENT_THEORY":"SGP4"},{"MEAN_ANOMALY":"95.2136","COUNTRY_CODE":"US","ECCENTRICITY":"0.00015040","TLE_LINE1":"1 56130U 23046AQ  23114.38878065  .00001025  00000-0  11262-4 0  9990","SEMIMAJOR_AXIS":"6733.167","ELEMENT_SET_NO":"999","CLASSIFICATION_TYPE":"U","LAUNCH_DATE":"2023-03-29","FILE":"3893330","DECAY_DATE":null,"GP_ID":"230702988","NORAD_CAT_ID":"56130","OBJECT_TYPE":"PAYLOAD","BSTAR":"0.00001126200000","EPHEMERIS_TYPE":"0","MEAN_MOTION_DDOT":"0.0000000000000","REV_AT_EPOCH":"402","OBJECT_ID":"2023-046AQ","TLE_LINE2":"2 56130  43.0003 109.8338 0001504 264.8560  95.2136 15.71352816  4021","APOAPSIS":"356.044","REF_FRAME":"TEME","OBJECT_NAME":"STARLINK-6117","INCLINATION":"43.0003","MEAN_MOTION":"15.71352816","EPOCH":"2023-04-24T09:19:50.648160","MEAN_MOTION_DOT":"0.00001025","PERIOD":"91.641","RCS_SIZE":"LARGE","PERIAPSIS":"354.019","ARG_OF_PERICENTER":"264.8560","MEAN_ELEMENT_THEORY":"SGP4","RA_OF_ASC_NODE":"109.8338","SITE":"AFETR","TIME_SYSTEM":"UTC","CENTER_NAME":"EARTH"},{"CENTER_NAME":"EARTH","TIME_SYSTEM":"UTC","SITE":"AFETR","RA_OF_ASC_NODE":"107.9171","PERIAPSIS":"352.170","ARG_OF_PERICENTER":"33.3395","MEAN_ELEMENT_THEORY":"SGP4","RCS_SIZE":"LARGE","PERIOD":"91.646","MEAN_MOTION_DOT":"0.00014564","EPOCH":"2023-04-24T16:56:29.563008","INCLINATION":"42.9993","OBJECT_NAME":"STARLINK-6120","MEAN_MOTION":"15.71269678","REF_FRAME":"TEME","APOAPSIS":"358.369","REV_AT_EPOCH":"461","OBJECT_ID":"2023-046AR","TLE_LINE2":"2 56131  42.9993 107.9171 0004603  33.3395 326.7762 15.71269678  4615","MEAN_MOTION_DDOT":"0.0000000000000","BSTAR":"0.00011469000000","OBJECT_TYPE":"PAYLOAD","NORAD_CAT_ID":"56131","EPHEMERIS_TYPE":"0","GP_ID":"230705403","DECAY_DATE":null,"FILE":"3893442","LAUNCH_DATE":"2023-03-29","CLASSIFICATION_TYPE":"U","ELEMENT_SET_NO":"999","SEMIMAJOR_AXIS":"6733.404","ECCENTRICITY":"0.00046030","TLE_LINE1":"1 56131U 23046AR  23114.70589772  .00014564  00000-0  11469-3 0  9991","COUNTRY_CODE":"US","MEAN_ANOMALY":"326.7762"},{"SITE":"AFETR","RA_OF_ASC_NODE":"109.8353","CENTER_NAME":"EARTH","TIME_SYSTEM":"UTC","MEAN_ELEMENT_THEORY":"SGP4","PERIAPSIS":"354.134","ARG_OF_PERICENTER":"272.4604","PERIOD":"91.643","RCS_SIZE":"LARGE","OBJECT_NAME":"STARLINK-6071","INCLINATION":"43.0012","MEAN_MOTION":"15.71308249","MEAN_MOTION_DOT":"-0.00013715","EPOCH":"2023-04-24T09:19:43.396608","MEAN_MOTION_DDOT":"0.0000000000000","REF_FRAME":"TEME","APOAPSIS":"356.185","OBJECT_ID":"2023-046AS","REV_AT_EPOCH":"402","TLE_LINE2":"2 56132  43.0012 109.8353 0001523 272.4604  87.6090 15.71308249  4020","FILE":"3893330","DECAY_DATE":null,"OBJECT_TYPE":"PAYLOAD","NORAD_CAT_ID":"56132","BSTAR":"-0.00010152000000","EPHEMERIS_TYPE":"0","GP_ID":"230702904","ELEMENT_SET_NO":"999","SEMIMAJOR_AXIS":"6733.294","CLASSIFICATION_TYPE":"U","LAUNCH_DATE":"2023-03-29","MEAN_ANOMALY":"87.6090","ECCENTRICITY":"0.00015230","TLE_LINE1":"1 56132U 23046AS  23114.38869672 -.00013715  00000-0 -10152-3 0  9993","COUNTRY_CODE":"US"},{"MEAN_ELEMENT_THEORY":"SGP4","PERIAPSIS":"353.428","ARG_OF_PERICENTER":"320.6110","TIME_SYSTEM":"UTC","CENTER_NAME":"EARTH","RA_OF_ASC_NODE":"107.9161","SITE":"AFETR","EPOCH":"2023-04-24T16:56:37.447872","MEAN_MOTION_DOT":"-0.00038031","OBJECT_NAME":"STARLINK-5566","INCLINATION":"42.9985","MEAN_MOTION":"15.71269174","RCS_SIZE":"LARGE","PERIOD":"91.646","GP_ID":"230705402","OBJECT_TYPE":"PAYLOAD","BSTAR":"-0.00028888000000","EPHEMERIS_TYPE":"0","NORAD_CAT_ID":"56133","DECAY_DATE":null,"FILE":"3893442","REV_AT_EPOCH":"461","OBJECT_ID":"2023-046AT","TLE_LINE2":"2 56133  42.9985 107.9161 0002737 320.6110  39.4559 15.71269174  4613","APOAPSIS":"357.114","REF_FRAME":"TEME","MEAN_MOTION_DDOT":"0.0000000000000","COUNTRY_CODE":"US","ECCENTRICITY":"0.00027370","TLE_LINE1":"1 56133U 23046AT  23114.70598898 -.00038031  00000-0 -28888-3 0  9992","MEAN_ANOMALY":"39.4559","LAUNCH_DATE":"2023-03-29","CLASSIFICATION_TYPE":"U","SEMIMAJOR_AXIS":"6733.406","ELEMENT_SET_NO":"999"},{"MEAN_ANOMALY":"71.2145","COUNTRY_CODE":"US","ECCENTRICITY":"0.00010590","TLE_LINE1":"1 56134U 23046AU  23114.38837535 -.00039137  00000-0 -29689-3 0  9999","SEMIMAJOR_AXIS":"6733.267","ELEMENT_SET_NO":"999","CLASSIFICATION_TYPE":"U","LAUNCH_DATE":"2023-03-29","DECAY_DATE":null,"FILE":"3893330","GP_ID":"230702871","OBJECT_TYPE":"PAYLOAD","BSTAR":"-0.00029689000000","NORAD_CAT_ID":"56134","EPHEMERIS_TYPE":"0","MEAN_MOTION_DDOT":"0.0000000000000","REV_AT_EPOCH":"402","OBJECT_ID":"2023-046AU","TLE_LINE2":"2 56134  42.9999 109.8346 0001059 288.8608  71.2145 15.71317875  4020","APOAPSIS":"355.845","REF_FRAME":"TEME","OBJECT_NAME":"STARLINK-5564","INCLINATION":"42.9999","MEAN_MOTION":"15.71317875","EPOCH":"2023-04-24T09:19:15.630240","MEAN_MOTION_DOT":"-0.00039137","PERIOD":"91.643","RCS_SIZE":"LARGE","MEAN_ELEMENT_THEORY":"SGP4","PERIAPSIS":"354.418","ARG_OF_PERICENTER":"288.8608","RA_OF_ASC_NODE":"109.8346","SITE":"AFETR","TIME_SYSTEM":"UTC","CENTER_NAME":"EARTH"},{"COUNTRY_CODE":"US","ECCENTRICITY":"0.00035690","TLE_LINE1":"1 56135U 23046AV  23114.38773905 -.00091191  00000-0 -70123-3 0  9997","MEAN_ANOMALY":"295.5943","LAUNCH_DATE":"2023-03-29","CLASSIFICATION_TYPE":"U","SEMIMAJOR_AXIS":"6733.347","ELEMENT_SET_NO":"999","GP_ID":"230702844","BSTAR":"-0.00070123000000","OBJECT_TYPE":"PAYLOAD","NORAD_CAT_ID":"56135","EPHEMERIS_TYPE":"0","FILE":"3893330","DECAY_DATE":null,"REV_AT_EPOCH":"402","OBJECT_ID":"2023-046AV","TLE_LINE2":"2 56135  42.9962 109.8311 0003569  64.5293 295.5943 15.71289845  4022","APOAPSIS":"357.615","REF_FRAME":"TEME","MEAN_MOTION_DDOT":"0.0000000000000","EPOCH":"2023-04-24T09:18:20.653920","MEAN_MOTION_DOT":"-0.00091191","OBJECT_NAME":"STARLINK-5563","INCLINATION":"42.9962","MEAN_MOTION":"15.71289845","RCS_SIZE":"LARGE","PERIOD":"91.644","PERIAPSIS":"352.808","ARG_OF_PERICENTER":"64.5293","MEAN_ELEMENT_THEORY":"SGP4","TIME_SYSTEM":"UTC","CENTER_NAME":"EARTH","RA_OF_ASC_NODE":"109.8311","SITE":"AFETR"},{"TIME_SYSTEM":"UTC","CENTER_NAME":"EARTH","RA_OF_ASC_NODE":"110.2148","SITE":"AFETR","PERIAPSIS":"354.080","MEAN_ELEMENT_THEORY":"SGP4","ARG_OF_PERICENTER":"270.8557","RCS_SIZE":"LARGE","PERIOD":"91.643","EPOCH":"2023-04-24T07:47:34.119744","MEAN_MOTION_DOT":"-0.00021092","INCLINATION":"43.0000","OBJECT_NAME":"STARLINK-5489","MEAN_MOTION":"15.71321824","OBJECT_ID":"2023-046AW","REV_AT_EPOCH":"401","TLE_LINE2":"2 56136  43.0000 110.2148 0001545 270.8557  89.2134 15.71321824  4012","APOAPSIS":"356.161","REF_FRAME":"TEME","MEAN_MOTION_DDOT":"0.0000000000000","GP_ID":"230702787","BSTAR":"-0.00015803000000","OBJECT_TYPE":"PAYLOAD","NORAD_CAT_ID":"56136","EPHEMERIS_TYPE":"0","DECAY_DATE":null,"FILE":"3893330","LAUNCH_DATE":"2023-03-29","CLASSIFICATION_TYPE":"U","SEMIMAJOR_AXIS":"6733.255","ELEMENT_SET_NO":"999","COUNTRY_CODE":"US","ECCENTRICITY":"0.00015450","TLE_LINE1":"1 56136U 23046AW  23114.32470046 -.00021092  00000-0 -15803-3 0  9999","MEAN_ANOMALY":"89.2134"}];
